ACS3                    
1 59588U 24077B   24285.08440282  .00026204  00000+0  29195-1 0  9994
2 59588  97.4488 326.4705 0050401 182.0492 178.0462 13.70654704 23257
